NORAD_CAT_ID,OBJECT_NAME,OBJECT_TYPE,EPOCH,MEAN_MOTION,ECCENTRICITY,INCLINATION,RA_OF_ASC_NODE,ARG_OF_PERICENTER,MEAN_ANOMALY,BSTAR,MEAN_MOTION_DOT,MEAN_MOTION_DDOT,TLE_LINE0,TLE_LINE1,TLE_LINE2,SEMIMAJOR_AXIS,PERIOD,APOGEE,PERIGEE,DECAYED
52635.0,STARLINK-3978,PAYLOAD,2022-10-29 13:58:37,15.08848306,0.0002319999999999,53.217,7.8142,33.9369,326.1772,6.532e-05,7.52e-06,0.0,0 STARLINK-3978,1 52635U 22052AP  22302.58237692  .00000752  00000-0  65320-4 0  9997,2 52635  53.2170   7.8142 0002320  33.9369 326.1772 15.08848306 25887,6917.855,95.437,541.325,538.115,0.0
52635.0,STARLINK-3978,PAYLOAD,2022-10-30 10:38:37,15.08860504,0.0002569,53.2174,3.9479,23.8283,336.2827,0.00013838,1.916e-05,0.0,0 STARLINK-3978,1 52635U 22052AP  22303.44348456  .00001916  00000-0  13838-3 0  9993,2 52635  53.2174   3.9479 0002569  23.8283 336.2827 15.08860504 26012,6917.818,95.436,541.46,537.906,0.0
52635.0,STARLINK-3978,PAYLOAD,2022-10-30 15:24:46,15.08850454,0.0002439,53.2174,3.0562,29.4746,330.6383,6.1001e-05,6.83e-06,0.0,0 STARLINK-3978,1 52635U 22052AP  22303.64220826  .00000683  00000-0  61001-4 0  9991,2 52635  53.2174   3.0562 0002439  29.4746 330.6383 15.08850454 26049,6917.848000000001,95.437,541.401,538.026,0.0
52635.0,STARLINK-3978,PAYLOAD,2022-10-31 10:29:25,15.08820905,0.0002534,53.2173,359.4872,23.4511,336.6597,-0.00024238,-4.142e-05,0.0,0 STARLINK-3978,1 52635U 22052AP  22304.43710552 -.00004142  00000-0 -24238-3 0  9995,2 52635  53.2173 359.4872 0002534  23.4511 336.6597 15.08820905 26164,6917.939,95.439,541.557,538.0509999999998,0.0
52635.0,STARLINK-3978,PAYLOAD,2022-10-31 15:15:35,15.08823715,0.0002552999999999,53.2178,358.5962,25.475,334.6368,-0.00013282,-2.401e-05,0.0,0 STARLINK-3978,1 52635U 22052AP  22304.63582722 -.00002401  00000-0 -13282-3 0  9996,2 52635  53.2178 358.5962 0002553  25.4750 334.6368 15.08823715 26196,6917.93,95.439,541.561,538.029,0.0
52635.0,STARLINK-3978,PAYLOAD,2022-11-01 07:09:27,15.08838477,0.0002586,53.2179,355.6228,25.0284,335.0833,0.00074088,0.00011522,0.0,0 STARLINK-3978,1 52635U 22052AP  22305.29823088  .00011522  00000-0  74088-3 0  9995,2 52635  53.2179 355.6228 0002586  25.0284 335.0833 15.08838477 26669,6917.885,95.438,541.539,537.961,0.0
52635.0,STARLINK-3978,PAYLOAD,2022-11-01 11:55:36,15.08834571,0.0002568,53.2176,354.7305,23.504,336.607,0.00057183,8.823e-05,0.0,0 STARLINK-3978,1 52635U 22052AP  22305.49695359  .00008823  00000-0  57183-3 0  9992,2 52635  53.2176 354.7305 0002568  23.5040 336.6070 15.08834571 26329,6917.897,95.438,541.538,537.985,0.0
52635.0,STARLINK-3978,PAYLOAD,2022-11-01 15:06:23,15.08838776,0.0002606,53.2177,354.1357,23.5583,336.5528,0.00064627,0.00010012,0.0,0 STARLINK-3978,1 52635U 22052AP  22305.62943360  .00010012  00000-0  64627-3 0  9999,2 52635  53.2177 354.1357 0002606  23.5583 336.5528 15.08838776 26346,6917.884,95.438,541.552,537.946,0.0
52635.0,STARLINK-3978,PAYLOAD,2022-11-02 10:11:00,15.08837099,0.0002626,53.2179,350.5681,24.4073,335.7043,0.00063751,9.872e-05,0.0,0 STARLINK-3978,1 52635U 22052AP  22306.42431092  .00009872  00000-0  63751-3 0  9991,2 52635  53.2179 350.5681 0002626  24.4073 335.7043 15.08837099 26838,6917.889,95.438,541.571,537.938,0.0
52635.0,STARLINK-3978,PAYLOAD,2022-11-02 11:46:23,15.08836194,0.0002668,53.2178,350.2708,24.7438,335.3682,0.00083662,0.00013051,0.0,0 STARLINK-3978,1 52635U 22052AP  22306.49055152  .00013051  00000-0  83662-3 0  9994,2 52635  53.2178 350.2708 0002668  24.7438 335.3682 15.08836194 26478,6917.892,95.438,541.6030000000002,537.911,0.0
52635.0,STARLINK-3978,PAYLOAD,2022-11-02 19:43:19,15.08835101,0.0002915,53.2175,348.7831,26.7818,333.3324,0.00073882,0.00011488,0.0,0 STARLINK-3978,1 52635U 22052AP  22306.82175609  .00011488  00000-0  73882-3 0  9996,2 52635  53.2175 348.7831 0002915  26.7818 333.3324 15.08835101 26527,6917.895,95.438,541.7769999999998,537.744,0.0
52635.0,STARLINK-3978,PAYLOAD,2022-11-03 13:12:34,15.08842068,0.0003002,53.2175,345.5123,30.1879,329.9285,0.00080871,0.00012607,0.0,0 STARLINK-3978,1 52635U 22052AP  22307.55039595  .00012607  00000-0  80871-3 0  9990,2 52635  53.2175 345.5123 0003002  30.1879 329.9285 15.08842068 26639,6917.874,95.437,541.816,537.6619999999998,0.0
52635.0,STARLINK-3978,PAYLOAD,2022-11-04 08:17:10,15.08876022,0.0002772,53.2172,341.9438,28.5396,331.5748,0.00093971,0.00014714,0.0,0 STARLINK-3978,1 52635U 22052AP  22308.34526259  .00014714  00000-0  93971-3 0  9992,2 52635  53.2172 341.9438 0002772  28.5396 331.5748 15.08876022 27128,6917.77,95.435,541.553,537.7180000000002,0.0
52635.0,STARLINK-3978,PAYLOAD,2022-11-04 11:27:56,15.08878918,0.0002793,53.2171,341.3495,27.9697,332.1445,0.0008601,0.00013442,0.0,0 STARLINK-3978,1 52635U 22052AP  22308.47773929  .00013442  00000-0  86010-3 0  9997,2 52635  53.2171 341.3495 0002793  27.9697 332.1445 15.08878918 26771,6917.761,95.435,541.559,537.694,0.0
52635.0,STARLINK-3978,PAYLOAD,2022-11-04 14:38:43,15.08861638,0.0003083,53.217,340.7549,27.673,332.4426,0.00029572,4.424e-05,0.0,0 STARLINK-3978,1 52635U 22052AP  22308.61022050  .00004424  00000-0  29572-3 0  9995,2 52635  53.2170 340.7549 0003083  27.6730 332.4426 15.08861638 27168,6917.814,95.436,541.812,537.5459999999998,0.0
52635.0,STARLINK-3978,PAYLOAD,2022-11-04 19:24:52,15.08854207,0.0002842,53.2168,339.8621,29.3058,330.8094,-0.00020221,-3.507e-05,0.0,0 STARLINK-3978,1 52635U 22052AP  22308.80893988 -.00003507  00000-0 -20221-3 0  9997,2 52635  53.2168 339.8621 0002842  29.3058 330.8094 15.08854207 26828,6917.837,95.437,541.668,537.736,0.0
52635.0,STARLINK-3978,PAYLOAD,2022-11-05 01:46:24,15.08848828,0.0002791,53.2172,338.6719,31.1594,328.9564,-9.0746e-05,-1.733e-05,0.0,0 STARLINK-3978,1 52635U 22052AP  22309.07389878 -.00001733  00000-0 -90746-4 0  9994,2 52635  53.2172 338.6719 0002791  31.1594 328.9564 15.08848828 27235,6917.853,95.437,541.649,537.788,0.0
52635.0,STARLINK-3978,PAYLOAD,2022-11-05 09:43:21,15.08835212,0.0002546,53.2178,337.1854,23.7805,336.3304,-0.0003211,-5.395e-05,0.0,0 STARLINK-3978,1 52635U 22052AP  22309.40510481 -.00005395  00000-0 -32110-3 0  9995,2 52635  53.2178 337.1854 0002546  23.7805 336.3304 15.08835212 27288,6917.895,95.438,541.521,537.999,0.0
52635.0,STARLINK-3978,PAYLOAD,2022-11-05 19:15:40,15.08821418,0.0002826,53.2162,335.403,27.6272,332.487,-0.00036918,-6.157e-05,0.0,0 STARLINK-3978,1 52635U 22052AP  22309.80255737 -.00006157  00000-0 -36918-3 0  9996,2 52635  53.2162 335.4030 0002826  27.6272 332.4870 15.08821418 27345,6917.937,95.439,541.757,537.847,0.0
52635.0,STARLINK-3978,PAYLOAD,2022-11-06 11:09:32,15.08827939,0.0002844,53.2164,332.4285,29.6629,330.4524,5.3149e-05,5.57e-06,0.0,0 STARLINK-3978,1 52635U 22052AP  22310.46496338  .00000557  00000-0  53149-4 0  9996,2 52635  53.2164 332.4285 0002844  29.6629 330.4524 15.08827939 27443,6917.917,95.438,541.75,537.815,0.0
52635.0,STARLINK-3978,PAYLOAD,2022-11-07 12:35:43,15.08839756,0.0002776,53.2166,327.6707,26.5324,333.581,0.00045047,6.888e-05,0.0,0 STARLINK-3978,1 52635U 22052AP  22311.52480737  .00006888  00000-0  45047-3 0  9990,2 52635  53.2166 327.6707 0002776  26.5324 333.5810 15.08839756 27602,6917.880999999999,95.438,541.6669999999998,537.826,0.0
52635.0,STARLINK-3978,PAYLOAD,2022-11-08 07:40:19,15.08863311,0.0002817,53.2166,324.1013,28.9419,331.1729,0.00050087,7.697e-05,0.0,0 STARLINK-3978,1 52635U 22052AP  22312.31967569  .00007697  00000-0  50087-3 0  9990,2 52635  53.2166 324.1013 0002817  28.9419 331.1729 15.08863311 27721,6917.809,95.436,541.623,537.725,0.0
52635.0,STARLINK-3978,PAYLOAD,2022-11-08 09:15:43,15.08858679,0.0002776,53.2167,323.8044,29.5387,330.5761,0.00033137,4.992e-05,0.0,0 STARLINK-3978,1 52635U 22052AP  22312.38591623  .00004992  00000-0  33137-3 0  9993,2 52635  53.2167 323.8044 0002776  29.5387 330.5761 15.08858679 27367,6917.823,95.436,541.609,537.768,0.0
52635.0,STARLINK-3978,PAYLOAD,2022-11-09 09:06:28,15.08857375,0.0002807,53.2168,319.3438,25.4005,334.7125,-7.888800000000001e-05,-1.545e-05,0.0,0 STARLINK-3978,1 52635U 22052AP  22313.37950186 -.00001545  00000-0 -78888-4 0  9992,2 52635  53.2168 319.3438 0002807  25.4005 334.7125 15.08857375 27881,6917.8269999999975,95.436,541.634,537.75,0.0
52635.0,STARLINK-3978,PAYLOAD,2022-11-09 12:17:15,15.08830536,0.0003367,53.2167,318.749,28.1508,331.9666,-0.00077295,-0.00012567,0.0,0 STARLINK-3978,1 52635U 22052AP  22313.51198950 -.00012567  00000-0 -77295-3 0  9997,2 52635  53.2167 318.7490 0003367  28.1508 331.9666 15.08830536 27532,6917.909000000002,95.438,542.104,537.445,0.0
52635.0,STARLINK-3978,PAYLOAD,2022-11-09 17:03:25,15.08821654,0.0002889,53.2168,317.8559,25.6965,334.417,-0.0010736,-0.00017327,0.0,0 STARLINK-3978,1 52635U 22052AP  22313.71070849 -.00017327  00000-0 -10736-2 0  9990,2 52635  53.2168 317.8559 0002889  25.6965 334.4170 15.08821654 27939,6917.936,95.439,541.8,537.803,0.0
52635.0,STARLINK-3978,PAYLOAD,2022-11-10 12:08:03,15.08821322,0.0002663,53.2165,314.2882,24.2777,335.8341,-8.8484e-05,-1.696e-05,0.0,0 STARLINK-3978,1 52635U 22052AP  22314.50560042 -.00001696  00000-0 -88484-4 0  9996,2 52635  53.2165 314.2882 0002663  24.2777 335.8341 15.08821322 27681,6917.937,95.439,541.645,537.96,0.0
52635.0,STARLINK-3978,PAYLOAD,2022-11-10 16:54:13,15.08822543,0.0002637,53.2164,313.3966,23.6161,336.4952,0.00075917,0.00011809,0.0,0 STARLINK-3978,1 52635U 22052AP  22314.70432490  .00011809  00000-0  75917-3 0  9994,2 52635  53.2164 313.3966 0002637  23.6161 336.4952 15.08822543 28080,6917.934,95.439,541.623,537.974,0.0
52635.0,STARLINK-3978,PAYLOAD,2022-11-11 08:48:05,15.08819564,0.0002577,53.2162,310.4228,25.911,334.2011,0.00021816,3.184e-05,0.0,0 STARLINK-3978,1 52635U 22052AP  22315.36673504  .00003184  00000-0  21816-3 0  9996,2 52635  53.2162 310.4228 0002577  25.9110 334.2011 15.08819564 28181,6917.943,95.439,541.591,538.025,0.0
